[{"OBJECT_NAME":"JILIN-1 GAOFEN 3D31","OBJECT_ID":"2022-048F","EPOCH":"2026-03-09T22:43:25.074336","MEAN_MOTION":15.6100761,"ECCENTRICITY":0.00020948,"INCLINATION":97.5608,"RA_OF_ASC_NODE":176.1853,"ARG_OF_PERICENTER":115.2158,"MEAN_ANOMALY":244.9316,"EPHEMERIS_TYPE":0,"CLASSIFICATION_TYPE":"U","NORAD_CAT_ID":52448,"ELEMENT_SET_NO":999,"REV_AT_EPOCH":21401,"BSTAR":0.0010031145,"MEAN_MOTION_DOT":0.00084827,"MEAN_MOTION_DDOT":0},{"OBJECT_NAME":"AVUM R\/B","OBJECT_ID":"2015-028B","EPOCH":"2026-03-09T15:47:10.915008","MEAN_MOTION":15.38120394,"ECCENTRICITY":0.01316946,"INCLINATION":98.6577,"RA_OF_ASC_NODE":312.3046,"ARG_OF_PERICENTER":250.9525,"MEAN_ANOMALY":107.7413,"EPHEMERIS_TYPE":0,"CLASSIFICATION_TYPE":"U","NORAD_CAT_ID":40698,"ELEMENT_SET_NO":999,"REV_AT_EPOCH":58785,"BSTAR":0.00031736457,"MEAN_MOTION_DOT":0.00015963,"MEAN_MOTION_DDOT":0}]
